[{"OBJECT_NAME":"STARLINK-33792","OBJECT_ID":"2025-071P","EPOCH":"2026-03-09T13:33:34.764480","MEAN_MOTION":15.30188086,"ECCENTRICITY":9.72e-5,"INCLINATION":53.1578,"RA_OF_ASC_NODE":140.3008,"ARG_OF_PERICENTER":104.7553,"MEAN_ANOMALY":255.3555,"EPHEMERIS_TYPE":0,"CLASSIFICATION_TYPE":"U","NORAD_CAT_ID":63506,"ELEMENT_SET_NO":999,"REV_AT_EPOCH":5270,"BSTAR":0.00075717,"MEAN_MOTION_DOT":0.00022125,"MEAN_MOTION_DDOT":0},{"OBJECT_NAME":"COSMOS 2588","OBJECT_ID":"2025-109A","EPOCH":"2026-03-09T19:28:59.107008","MEAN_MOTION":15.29122656,"ECCENTRICITY":0.0005019,"INCLINATION":72.9704,"RA_OF_ASC_NODE":73.5401,"ARG_OF_PERICENTER":308.678,"MEAN_ANOMALY":51.3966,"EPHEMERIS_TYPE":0,"CLASSIFICATION_TYPE":"U","NORAD_CAT_ID":64095,"ELEMENT_SET_NO":999,"REV_AT_EPOCH":4442,"BSTAR":0.00032611,"MEAN_MOTION_DOT":9.169e-5,"MEAN_MOTION_DDOT":0}]
